COSMOS 1933             
1 18958U 88020A   22178.35216288  .00001693  00000+0  11830-3 0  9998
2 18958  82.5296 130.8099 0012041 144.9220 215.2802 15.04662637846294
SL-3 R/B                
1 19046U 88032B   22178.56982262  .00000278  00000+0  24271-4 0  9997
2 19046  97.3908 177.0746 0035581 202.0717 157.8979 15.03760326848134
SL-16 R/B               
1 19120U 88039B   22178.31979999  .00000109  00000+0  74737-4 0  9998
2 19120  71.0154  45.1127 0024114 254.2449 105.6016 14.19248804766622
COSMOS 1953             
1 19210U 88050A   22178.36460508  .00001311  00000+0  84536-4 0  9991
2 19210  82.5152  51.1529 0015766 107.1305 253.1651 15.07377106833052
SL-8 R/B                
1 19257U 88053B   22178.21353385  .00000105  00000+0  43713-4 0  9995
2 19257  74.0491  80.6399 0021395 237.7196 237.8746 14.37607866782306
COSMOS 1975             
1 19573U 88093A   22178.54713544  .00001771  00000+0  11847-3 0  9995
2 19573  82.5196   6.8546 0014049 154.7052 205.4866 15.06283102814809
SL-14 R/B               
1 19574U 88093B   22178.55169792  .00000204  00000+0  21809-4 0  9997
2 19574  82.5316 227.9160 0021623 177.2004 296.0788 14.83510844800584
SL-16 R/B               
1 19650U 88102B   22178.28381556  .00000238  00000+0  14518-3 0  9992
2 19650  71.0000 114.1661 0016457 268.3989  91.5249 14.15833942735598
INTERCOSMOS 24          
1 20261U 89080A   22178.55946738  .00000643  00000+0  18695-3 0  9997
2 20261  82.6024 261.1888 1201875 179.7492 180.4489 12.56396058496921
SL-14 R/B               
1 20262U 89080C   22178.43671016  .00000079  00000+0  16843-4 0  9996
2 20262  82.5937 319.9055 1236644  29.8545 336.7574 12.49080325491361
DELTA 2 R/B(1)          
1 20303U 89085B   22178.25550406  .00009274  00000+0  23586-3 0  9993
2 20303  35.6403  25.6068 0080708 300.2680  59.0082 15.35544147781964
DELTA 1 R/B             
1 20323U 89089B   22178.37276411  .00000196  00000+0  59372-4 0  9990
2 20323  97.0792 218.4787 0073008  63.8962 296.9724 14.48530091699979
ARIANE 40 R/B           
1 20443U 90005H   22178.15811986  .00000117  00000+0  52765-4 0  9993
2 20443  98.4831 245.8115 0009249 299.8460  60.1808 14.38238634698431
DELTA 2 R/B(1)          
1 20453U 90008B   22178.48219798  .00004294  00000+0  22573-3 0  9999
2 20453  35.6216 203.7151 0264686  14.9215 345.9132 14.89958154721407
COSMOS 2058             
1 20465U 90010A   22178.35671362  .00001054  00000+0  84845-4 0  9992
2 20465  82.4891 281.0461 0014233 221.1993 138.8157 14.98916632739116
SL-14 R/B               
1 20466U 90010B   22178.48458410  .00000219  00000+0  24792-4 0  9991
2 20466  82.5037  94.1682 0021961  67.8772 292.4770 14.81553055728297
SL-14 R/B               
1 20511U 90018B   22178.13810890  .00000211  00000+0  24633-4 0  9992
2 20511  82.5231  44.1796 0016610 207.4035 269.9623 14.80205790722529
HST                     
1 20580U 90037B   22178.21252299  .00001642  00000+0  86091-4 0  9996
2 20580  28.4698 104.1336 0002692 138.3254 340.3249 15.10611267567695
SL-16 R/B               
1 20625U 90046B   22178.54474103  .00000135  00000+0  94575-4 0  9994
2 20625  70.9982 254.7397 0015172 204.9562 155.0829 14.14692776657288
COSMOS 2084             
1 20663U 90055A   22178.48911662  .00000613  00000+0  69187-4 0  9997
2 20663  62.7910 216.1607 0118246  50.9070 310.2469 14.92896626733797
SL-6 R/B(2)             
1 20666U 90055D   22178.21189815  .00001328  00000+0  12469-3 0  9992
2 20666  62.7830 131.5759 0130035  73.4284 288.1046 14.93229746735718
SL-8 R/B                
1 20775U 90078B   22178.46208714  .00005970  00000+0  27554-3 0  9993
2 20775  82.9243 334.5715 0551798  55.7511 309.4683 14.40111138611968
SL-8 R/B                
1 21088U 91006B   22178.30201860  .00000038  00000+0  22659-4 0  9993
2 21088  82.9429  95.1438 0021576 217.1937 259.4516 13.77197513578046
OKEAN-3                 
1 21397U 91039A   22178.54507937  .00000841  00000+0  76885-4 0  9994
2 21397  82.5208 192.9435 0016750 206.6074 153.4289 14.93721118662683
COSMOS 2151             
1 21422U 91042A   22178.38031001  .00000735  00000+0  68729-4 0  9993
2 21422  82.5007 298.2943 0012521 281.4544  78.5270 14.92694086661169
SL-14 R/B               
1 21423U 91042B   22178.11866054  .00000210  00000+0  24720-4 0  9990
2 21423  82.4940  45.5501 0017570   1.1000 359.0248 14.79951395653056
ERS-1                   
1 21574U 91050A   22178.50847749  .00000057  00000+0  34011-4 0  9992
2 21574  98.6979 147.4605 0031720 247.8654 111.9165 14.37910572621467
ARIANE 40 R/B           
1 21610U 91050F   22178.19149667  .00000150  00000+0  59876-4 0  9992
2 21610  98.3808 247.5118 0003226 174.3309 185.7917 14.41073732624233
INTERCOSMOS 25          
1 21819U 91086A   22178.58343710  .00001474  00000+0  29117-3 0  9994
2 21819  82.5881  42.5785 1513850 134.2980 239.2772 12.05792673333458
SL-8 R/B                
1 21876U 92008B   22178.51207363  .00000130  00000+0  11896-3 0  9991
2 21876  82.9261 192.3468 0033586 309.4371 161.8701 13.75706109523620
SL-8 R/B                
1 21938U 92020B   22178.45472013  .00000044  00000+0  29430-4 0  9991
2 21938  82.9308  77.1725 0030511 107.8096  64.8386 13.75305186515381
COSMOS 2219             
1 22219U 92076A   22178.57280655  .00000310  00000+0  18877-3 0  9995
2 22219  71.0610 321.5620 0016615 106.0481 254.2473 14.13698272527409
SL-16 R/B               
1 22220U 92076B   22178.38505431 -.00000255  00000+0 -10375-3 0  9993
2 22220  70.9989 153.9527 0013333 344.8399 122.1822 14.16500555530454
COSMOS 2221             
1 22236U 92080A   22178.34805000  .00000780  00000+0  81134-4 0  9999
2 22236  82.5078 124.3440 0017447  30.2854 329.9367 14.88504151579300
SL-16 R/B               
1 22285U 92093B   22178.56032096  .00000125  00000+0  88882-4 0  9998
2 22285  71.0222 319.7931 0005567 226.9969 133.0688 14.15091920521991
COSMOS 2228             
1 22286U 92094A   22178.18817061  .00000770  00000+0  79349-4 0  9995
2 22286  82.5205  81.6114 0021765 139.6792 220.6045 14.88761790574470
SL-16 R/B               
1 22566U 93016B   22178.41841161 -.00000243  00000+0 -10083-3 0  9991
2 22566  71.0051 172.4677 0011944 228.5336 131.4762 14.15005563511000
COSMOS 2242             
1 22626U 93024A   22178.30885184  .00000779  00000+0  80709-4 0  9993
2 22626  82.5219 109.9424 0019709 139.2341 221.0356 14.88588027578870
SL-16 R/B               
1 22803U 93059B   22178.58012744 -.00000174  00000+0 -62726-4 0  9992
2 22803  70.9904 339.4670 0015183 111.6684 248.6058 14.16865262488131
ARIANE 40 R/B           
1 22830U 93061H   22178.16508176  .00000082  00000+0  47722-4 0  9993
2 22830  98.6632 240.9454 0009964 315.4909  44.5472 14.31562533500653
COSMOS 2278             
1 23087U 94023A   22178.30375584  .00000335  00000+0  20167-3 0  9992
2 23087  71.0538 121.1784 0010620 288.3008  71.6959 14.13871854453762
SL-16 R/B               
1 23088U 94023B   22178.57114106 -.00000234  00000+0 -96907-4 0  9999
2 23088  70.9998  27.6330 0004376 221.0315 139.0478 14.14711317454982
SL-16 R/B               
1 23343U 94074B   22178.40571448  .00000191  00000+0  34261-4 0  9992
2 23343  97.8922 231.1249 0005451 288.1719  82.4774 14.77045078487630
SL-16 R/B               
1 23405U 94077B   22178.58112063 -.00000247  00000+0 -10259-3 0  9991
2 23405  70.9830 314.2004 0001411 357.0723   3.0391 14.15258603425058
ERS-2                   
1 23560U 95021A   22178.33369283  .00004892  00000+0  18884-3 0  9994
2 23560  98.5051  85.0960 0003838 140.5474 219.6041 15.26865264454822
ARIANE 40+ R/B          
1 23561U 95021B   22178.41659142  .00000144  00000+0  62229-4 0  9999
2 23561  98.6227 235.7645 0006387 207.5173 161.6003 14.38157330424927
SL-16 R/B               
1 23705U 95058B   22178.37604026 -.00000289  00000+0 -12428-3 0  9992
2 23705  71.0211 136.4668 0011979   8.4615 351.6707 14.15173849376655
SL-16 R/B               
1 24298U 96051B   22178.37053647 -.00000002  00000+0  25145-4 0  9994
2 24298  70.8182 149.8830 0016383 322.8065  37.1919 14.12413974330836
ORBVIEW 2 (SEASTAR)     
1 24883U 97037A   22178.55620196  .00000115  00000+0  57650-4 0  9998
2 24883  98.6819 301.9561 0003469  86.4671 273.6910 14.33748223314752
SL-16 R/B               
1 25400U 98043G   22178.39354934  .00000007  00000+0  21727-4 0  9994
2 25400  98.6732 114.4068 0009654 346.8893  13.2034 14.25518056246436
SL-16 R/B               
1 25407U 98045B   22178.33425858 -.00000247  00000+0 -10116-3 0  9998
2 25407  71.0106 142.5922 0009855 282.2451  77.7569 14.15865094235803
ISS (ZARYA)             
1 25544U 98067A   22178.77628130  .00043634  00000+0  77476-3 0  9997
2 25544  51.6453 284.1403 0004751 312.8699 147.5021 15.49754316346821
CZ-4B R/B               
1 25732U 99025C   22178.11297219  .00000023  00000+0  32940-4 0  9992
2 25732  98.8532 219.4313 0036248 259.6017 161.0420 14.17733132196622
OKEAN-O                 
1 25860U 99039A   22178.54974063  .00000260  00000+0  44483-4 0  9993
2 25860  98.1379 218.5001 0001655  73.4744 286.6647 14.76961255234748
SL-16 R/B               
1 25861U 99039B   22178.55817904  .00000236  00000+0  39483-4 0  9992
2 25861  98.1779 205.7253 0014377 303.2833  56.6999 14.78839960236991
DELTA 2 R/B             
1 25876U 99041E   22178.56139435  .00000181  00000+0  70959-4 0  9990
2 25876  51.7653 267.7058 0529508 343.3655  15.0467 14.05048902172646
HELIOS 1B               
1 25977U 99064A   22178.52606142  .00000286  00000+0  42548-4 0  9996
2 25977  98.3212  13.1441 0002457 104.0904 256.0581 14.82799186484779
TERRA                   
1 25994U 99068A   22178.51236128  .00000202  00000+0  54750-4 0  9997
2 25994  98.1366 250.2020 0001281  97.7795  27.1668 14.57148596197963
SL-16 R/B               
1 26070U 00006B   22178.42340704  .00000243  00000+0  14870-3 0  9996
2 26070  71.0027  58.2657 0014619  77.0804 283.1950 14.15489883157321
